STARLINK-31914          
1 59902U 24100T   26068.16327008 -.00001507  00000+0 -45258-4 0  9993
2 59902  43.0032 128.6013 0001295 251.5976 108.4735 15.27567526100962
TROLL                   
1 62658U 25009BB  26068.22522958  .00013174  00000+0  48220-3 0  9994
2 62658  97.3932 150.7169 0001816  59.1850 300.9568 15.28164315118170
